#cP2005  4 26 00 00 00.00000000    2880 *POS* WGS84 FIT DLR*
## 1320 172800.00000000    30.00000000 53486 0.0000000000000
+    1   L06  0  0  0  0  0  0  0  0  0  0  0  0  0  0  0  0
+          0  0  0  0  0  0  0  0  0  0  0  0  0  0  0  0  0
+          0  0  0  0  0  0  0  0  0  0  0  0  0  0  0  0  0
+          0  0  0  0  0  0  0  0  0  0  0  0  0  0  0  0  0
+          0  0  0  0  0  0  0  0  0  0  0  0  0  0  0  0  0
++         0  0  0  0  0  0  0  0  0  0  0  0  0  0  0  0  0
++         0  0  0  0  0  0  0  0  0  0  0  0  0  0  0  0  0
++         0  0  0  0  0  0  0  0  0  0  0  0  0  0  0  0  0
++         0  0  0  0  0  0  0  0  0  0  0  0  0  0  0  0  0
++         0  0  0  0  0  0  0  0  0  0  0  0  0  0  0  0  0
%c cc cc ccc ccc cccc cccc cccc cccc ccccc ccccc ccccc ccccc
%c cc cc ccc ccc cccc cccc cccc cccc ccccc ccccc ccccc ccccc
%f   .0000000   .000000000   .00000000000   .000000000000000
%f   .0000000   .000000000   .00000000000   .000000000000000
%i    0    0    0    0      0      0      0      0         0
%i    0    0    0    0      0      0      0      0         0
/* NOTE: CCCCCCCCCCCCCCCCCCCCCCCCCCCCCCCCCCCCCCCCCCCCCCCCCCC
/* CCCCCCCCCCCCCCCCCCCCCCCCCCCCCCCCCCCCCCCCCCCCCCCCCCCCCCCCC
/* CCCCCCCCCCCCCCCCCCCCCCCCCCCCCCCCCCCCCCCCCCCCCCCCCCCCCCCCC
/* CCCCCCCCCCCCCCCCCCCCCCCCCCCCCCCCCCCCCCCCCCCCCCCCCCCCCCCCC
*  2005 04 26 08 31 30.00000000
PL06   3964.027848   3246.084942  -4385.475774 999999.000000
*  2005 04 26 08 32 00.00000000
PL06   3843.758600   3152.357482  -4557.688741 999999.000000
*  2005 04 26 08 32 30.00000000
PL06   3718.604324   3055.502560  -4724.566565 999999.000000
*  2005 04 26 08 33 00.00000000
PL06   3588.698380   2955.654877  -4885.915469 999999.000000
*  2005 04 26 08 33 30.00000000
PL06   3454.180147   2852.951943  -5041.548257 999999.000000
*  2005 04 26 08 34 00.00000000
PL06   3315.194858   2747.533884  -5191.284512 999999.000000
*  2005 04 26 08 34 30.00000000
PL06   3171.893434   2639.543240  -5334.950774 999999.000000
*  2005 04 26 08 35 00.00000000
PL06   3024.432328   2529.124783  -5472.380728 999999.000000
*  2005 04 26 08 35 30.00000000
PL06   2872.973360   2416.425326  -5603.415405 999999.000000
*  2005 04 26 08 36 00.00000000
PL06   2717.683516   2301.593513  -5727.903356 999999.000000
*  2005 04 26 08 36 30.00000000
PL06   2558.734752   2184.779623  -5845.700805 999999.000000
*  2005 04 26 08 37 00.00000000
PL06   2396.303800   2066.135375  -5956.671791 999999.000000
*  2005 04 26 08 37 30.00000000
PL06   2230.571971   1945.813734  -6060.688310 999999.000000
*  2005 04 26 08 38 00.00000000
PL06   2061.724955   1823.968717  -6157.630447 999999.000000
*  2005 04 26 08 38 30.00000000
PL06   1889.952609   1700.755197  -6247.386501 999999.000000
*  2005 04 26 08 39 00.00000000
PL06   1715.448753   1576.328706  -6329.853092 999999.000000
*  2005 04 26 08 39 30.00000000
PL06   1538.410964   1450.845246  -6404.935272 999999.000000
*  2005 04 26 08 40 00.00000000
PL06   1359.040358   1324.461099  -6472.546633 999999.000000
*  2005 04 26 08 40 30.00000000
PL06   1177.541351   1197.332636  -6532.609408 999999.000000
*  2005 04 26 08 41 00.00000000
PL06    994.121420   1069.616129  -6585.054548 999999.000000
*  2005 04 26 08 41 30.00000000
PL06    808.990864    941.467559  -6629.821785 999999.000000
*  2005 04 26 08 42 00.00000000
PL06    622.362574    813.042432  -6666.859685 999999.000000
*  2005 04 26 08 42 30.00000000
PL06    434.451804    684.495594  -6696.125701 999999.000000
*  2005 04 26 08 43 00.00000000
PL06    245.475935    555.981053  -6717.586228 999999.000000
*  2005 04 26 08 43 30.00000000
PL06     55.654220    427.651779  -6731.216644 999999.000000
*  2005 04 26 08 44 00.00000000
PL06   -134.792476    299.659527  -6737.001332 999999.000000
*  2005 04 26 08 44 30.00000000
PL06   -325.641932    172.154659  -6734.933673 999999.000000
*  2005 04 26 08 45 00.00000000
PL06   -516.670810     45.285994  -6725.016032 999999.000000
*  2005 04 26 08 45 30.00000000
PL06   -707.654889    -80.799347  -6707.259781 999999.000000
*  2005 04 26 08 46 00.00000000
PL06   -898.369344   -205.956118  -6681.685308 999999.000000
*  2005 04 26 08 46 30.00000000
PL06  -1088.589007   -330.041120  -6648.321979 999999.000000
*  2005 04 26 08 47 00.00000000
PL06  -1278.088614   -452.913363  -6607.208097 999999.000000
*  2005 04 26 08 47 30.00000000
PL06  -1466.643058   -574.434212  -6558.390869 999999.000000
*  2005 04 26 08 48 00.00000000
PL06  -1654.027658   -694.467542  -6501.926368 999999.000000
*  2005 04 26 08 48 30.00000000
PL06  -1840.018430   -812.879890  -6437.879468 999999.000000
*  2005 04 26 08 49 00.00000000
PL06  -2024.392345   -929.540597  -6366.323764 999999.000000
*  2005 04 26 08 49 30.00000000
PL06  -2206.927574  -1044.321946  -6287.341498 999999.000000
*  2005 04 26 08 50 00.00000000
PL06  -2387.403749  -1157.099297  -6201.023486 999999.000000
*  2005 04 26 08 50 30.00000000
PL06  -2565.602223  -1267.751224  -6107.469033 999999.000000
*  2005 04 26 08 51 00.00000000
PL06  -2741.306335  -1376.159639  -6006.785831 999999.000000
*  2005 04 26 08 51 30.00000000
PL06  -2914.301673  -1482.209923  -5899.089855 999999.000000
*  2005 04 26 08 52 00.00000000
PL06  -3084.376338  -1585.791047  -5784.505246 999999.000000
*  2005 04 26 08 52 30.00000000
PL06  -3251.321210  -1686.795689  -5663.164181 999999.000000
*  2005 04 26 08 53 00.00000000
PL06  -3414.930204  -1785.120344  -5535.206734 999999.000000
*  2005 04 26 08 53 30.00000000
PL06  -3575.000535  -1880.665432  -5400.780728 999999.000000
*  2005 04 26 08 54 00.00000000
PL06  -3731.332968  -1973.335405  -5260.041571 999999.000000
*  2005 04 26 08 54 30.00000000
PL06  -3883.732072  -2063.038836  -5113.152091 999999.000000
*  2005 04 26 08 55 00.00000000
PL06  -4032.006460  -2149.688515  -4960.282356 999999.000000
*  2005 04 26 08 55 30.00000000
PL06  -4175.969041  -2233.201530  -4801.609500 999999.000000
*  2005 04 26 08 56 00.00000000
PL06  -4315.437262  -2313.499359  -4637.317527 999999.000000
*  2005 04 26 08 56 30.00000000
PL06  -4450.233343  -2390.507938  -4467.597109 999999.000000
*  2005 04 26 08 57 00.00000000
PL06  -4580.184516  -2464.157735  -4292.645376 999999.000000
*  2005 04 26 08 57 30.00000000
PL06  -4705.123250  -2534.383815  -4112.665700 999999.000000
*  2005 04 26 08 58 00.00000000
PL06  -4824.887487  -2601.125902  -3927.867466 999999.000000
*  2005 04 26 08 58 30.00000000
PL06  -4939.320850  -2664.328428  -3738.465831 999999.000000
*  2005 04 26 08 59 00.00000000
PL06  -5048.272865  -2723.940574  -3544.681484 999999.000000
*  2005 04 26 08 59 30.00000000
PL06  -5151.599164  -2779.916314  -3346.740397 999999.000000
*  2005 04 26 09 00 00.00000000
PL06  -5249.161694  -2832.214448  -3144.873566 999999.000000
*  2005 04 26 09 00 30.00000000
PL06  -5340.828910  -2880.798627  -2939.316741 999999.000000
*  2005 04 26 09 01 00.00000000
PL06  -5426.475961  -2925.637376  -2730.310152 999999.000000
*  2005 04 26 09 01 30.00000000
PL06  -5505.984870  -2966.704106  -2518.098233 999999.000000
*  2005 04 26 09 02 00.00000000
PL06  -5579.244699  -3003.977124  -2302.929327 999999.000000
*  2005 04 26 09 02 30.00000000
PL06  -5646.151714  -3037.439638  -2085.055406 999999.000000
*  2005 04 26 09 03 00.00000000
PL06  -5706.609534  -3067.079745  -1864.731775 999999.000000
*  2005 04 26 09 03 30.00000000
PL06  -5760.529299  -3092.890425  -1642.216776 999999.000000
*  2005 04 26 09 04 00.00000000
PL06  -5807.829801  -3114.869526  -1417.771464 999999.000000
*  2005 04 26 09 04 30.00000000
PL06  -5848.437611  -3133.019732  -1191.659290 999999.000000
*  2005 04 26 09 05 00.00000000
PL06  -5882.287176  -3147.348531   -964.145791 999999.000000
*  2005 04 26 09 05 30.00000000
PL06  -5909.320942  -3157.868174   -735.498282 999999.000000
*  2005 04 26 09 06 00.00000000
PL06  -5929.489448  -3164.595633   -505.985530 999999.000000
*  2005 04 26 09 06 30.00000000
PL06  -5942.751419  -3167.552553   -275.877433 999999.000000
*  2005 04 26 09 07 00.00000000
PL06  -5949.073842  -3166.765195    -45.444692 999999.000000
*  2005 04 26 09 07 30.00000000
PL06  -5948.432040  -3162.264372    185.041523 999999.000000
*  2005 04 26 09 08 00.00000000
PL06  -5940.809722  -3154.085384    415.309902 999999.000000
*  2005 04 26 09 08 30.00000000
PL06  -5926.199025  -3142.267938    645.089338 999999.000000
*  2005 04 26 09 09 00.00000000
PL06  -5904.600544  -3126.856066    874.109250 999999.000000
*  2005 04 26 09 09 30.00000000
PL06  -5876.023350  -3107.898041   1102.099921 999999.000000
*  2005 04 26 09 10 00.00000000
PL06  -5840.484993  -3085.446280   1328.792827 999999.000000
*  2005 04 26 09 10 30.00000000
PL06  -5798.011502  -3059.557241   1553.920963 999999.000000
*  2005 04 26 09 11 00.00000000
PL06  -5748.637364  -3030.291315   1777.219171 999999.000000
*  2005 04 26 09 11 30.00000000
PL06  -5692.405490  -2997.712717   1998.424455 999999.000000
*  2005 04 26 09 12 00.00000000
PL06  -5629.367188  -2961.889369   2217.276286 999999.000000
*  2005 04 26 09 12 30.00000000
PL06  -5559.582119  -2922.892793   2433.516927 999999.000000
*  2005 04 26 09 13 00.00000000
PL06  -5483.118238  -2880.797993   2646.891742 999999.000000
*  2005 04 26 09 13 30.00000000
PL06  -5400.051723  -2835.683329   2857.149514 999999.000000
*  2005 04 26 09 14 00.00000000
PL06  -5310.466893  -2787.630383   3064.042752 999999.000000
*  2005 04 26 09 14 30.00000000
PL06  -5214.456112  -2736.723824   3267.327988 999999.000000
*  2005 04 26 09 15 00.00000000
PL06  -5112.119685  -2683.051257   3466.766071 999999.000000
*  2005 04 26 09 15 30.00000000
PL06  -5003.565748  -2626.703083   3662.122443 999999.000000
*  2005 04 26 09 16 00.00000000
PL06  -4888.910142  -2567.772357   3853.167428 999999.000000
*  2005 04 26 09 16 30.00000000
PL06  -4768.276273  -2506.354639   4039.676501 999999.000000
*  2005 04 26 09 17 00.00000000
PL06  -4641.794970  -2442.547847   4221.430543 999999.000000
*  2005 04 26 09 17 30.00000000
PL06  -4509.604330  -2376.452101   4398.216097 999999.000000
EOF
